[{"OBJECT_NAME":"GAOFEN-9 02","OBJECT_ID":"2020-034B","EPOCH":"2026-03-10T00:01:23.433024","MEAN_MOTION":15.24736529,"ECCENTRICITY":0.00138652,"INCLINATION":97.5615,"RA_OF_ASC_NODE":225.1997,"ARG_OF_PERICENTER":60.5372,"MEAN_ANOMALY":299.7247,"EPHEMERIS_TYPE":0,"CLASSIFICATION_TYPE":"U","NORAD_CAT_ID":45625,"ELEMENT_SET_NO":999,"REV_AT_EPOCH":32104,"BSTAR":0.00036092627,"MEAN_MOTION_DOT":8.888e-5,"MEAN_MOTION_DDOT":0},{"OBJECT_NAME":"STARLINK-31082","OBJECT_ID":"2023-200T","EPOCH":"2026-03-09T22:00:01.999584","MEAN_MOTION":15.2675541,"ECCENTRICITY":0.00015064,"INCLINATION":43.0004,"RA_OF_ASC_NODE":167.238,"ARG_OF_PERICENTER":265.0701,"MEAN_ANOMALY":302.6536,"EPHEMERIS_TYPE":0,"CLASSIFICATION_TYPE":"U","NORAD_CAT_ID":58606,"ELEMENT_SET_NO":999,"REV_AT_EPOCH":578,"BSTAR":-0.00058507825,"MEAN_MOTION_DOT":-0.00015927,"MEAN_MOTION_DDOT":0}]
